[{"OBJECT_NAME":"LEMUR-2-WILSON","OBJECT_ID":"2025-009CP","EPOCH":"2026-03-09T05:30:24.962112","MEAN_MOTION":14.94676648,"ECCENTRICITY":0.00035998,"INCLINATION":97.7068,"RA_OF_ASC_NODE":148.4663,"ARG_OF_PERICENTER":38.3481,"MEAN_ANOMALY":321.7994,"EPHEMERIS_TYPE":0,"CLASSIFICATION_TYPE":"U","NORAD_CAT_ID":62694,"ELEMENT_SET_NO":999,"REV_AT_EPOCH":6242,"BSTAR":0.00038001,"MEAN_MOTION_DOT":4.065e-5,"MEAN_MOTION_DDOT":0},{"OBJECT_NAME":"OBJECT N","OBJECT_ID":"2025-274N","EPOCH":"2026-03-09T18:30:08.486784","MEAN_MOTION":14.93734049,"ECCENTRICITY":0.00150768,"INCLINATION":97.7444,"RA_OF_ASC_NODE":359.6594,"ARG_OF_PERICENTER":356.6797,"MEAN_ANOMALY":3.432,"EPHEMERIS_TYPE":0,"CLASSIFICATION_TYPE":"U","NORAD_CAT_ID":66662,"ELEMENT_SET_NO":999,"REV_AT_EPOCH":1539,"BSTAR":0.00030653628,"MEAN_MOTION_DOT":3.195e-5,"MEAN_MOTION_DDOT":0}]
