LEMUR-2-WILSON          
1 62694U 25009CP  26068.22945558  .00004065  00000+0  38001-3 0  9994
2 62694  97.7068 148.4663 0003599  38.3481 321.7994 14.94676648 62425
2025-274N               
1 66662U 25274N   26068.77093155  .00003195  00000+0  30654-3 0  9993
2 66662  97.7444 359.6594 0015077 356.6797   3.4320 14.93734049 15391
